start=new Date('2022-08-31T00:00:00.000Z').valueOf();
sats=[{"APOAPSIS":"548.331","SEMIMAJOR_AXIS":"6925.373","EPOCH":"2022-08-30T21:24:21.208896","REF_FRAME":"TEME","TLE_LINE1":"1 46080U 20055BF  22242.89191214 -.00000855  00000-0 -38503-4 0  9990","ELEMENT_SET_NO":"999","DECAY_DATE":null,"FILE":"3552179","NORAD_CAT_ID":"46080","BSTAR":"-0.00003850300000","INCLINATION":"53.0554","CENTER_NAME":"EARTH","EPHEMERIS_TYPE":"0","MEAN_MOTION_DDOT":"0.0000000000000","GP_ID":"211358214","RA_OF_ASC_NODE":"113.2651","MEAN_ELEMENT_THEORY":"SGP4","OBJECT_TYPE":"PAYLOAD","COUNTRY_CODE":"US","RCS_SIZE":"LARGE","LAUNCH_DATE":"2020-08-07","PERIAPSIS":"546.144","MEAN_MOTION_DOT":"-0.00000855","MEAN_ANOMALY":"290.0628","CLASSIFICATION_TYPE":"U","ARG_OF_PERICENTER":"70.0531","PERIOD":"95.593","OBJECT_NAME":"STARLINK-1568","OBJECT_ID":"2020-055BF","SITE":"AFETR","TLE_LINE2":"2 46080  53.0554 113.2651 0001579  70.0531 290.0628 15.06392171115334","MEAN_MOTION":"15.06392171","ECCENTRICITY":"0.00015790","TIME_SYSTEM":"UTC","REV_AT_EPOCH":"11533"},{"MEAN_MOTION_DOT":"-0.00000644","LAUNCH_DATE":"2020-08-07","PERIAPSIS":"546.162","RCS_SIZE":"LARGE","MEAN_ANOMALY":"294.0390","OBJECT_TYPE":"PAYLOAD","COUNTRY_CODE":"US","SITE":"AFETR","TLE_LINE2":"2 46081  53.0541 113.4162 0001546  66.0761 294.0390 15.06393915115342","CLASSIFICATION_TYPE":"U","OBJECT_ID":"2020-055BG","OBJECT_NAME":"STARLINK-1571","ARG_OF_PERICENTER":"66.0761","PERIOD":"95.593","ECCENTRICITY":"0.00015460","MEAN_MOTION":"15.06393915","REV_AT_EPOCH":"11534","TIME_SYSTEM":"UTC","SEMIMAJOR_AXIS":"6925.367","EPOCH":"2022-08-30T20:37:56.885088","APOAPSIS":"548.303","TLE_LINE1":"1 46081U 20055BG  22242.85968617 -.00000644  00000-0 -24353-4 0  9990","REF_FRAME":"TEME","BSTAR":"-0.00002435300000","NORAD_CAT_ID":"46081","INCLINATION":"53.0541","DECAY_DATE":null,"FILE":"3552179","ELEMENT_SET_NO":"999","MEAN_ELEMENT_THEORY":"SGP4","RA_OF_ASC_NODE":"113.4162","CENTER_NAME":"EARTH","GP_ID":"211356964","MEAN_MOTION_DDOT":"0.0000000000000","EPHEMERIS_TYPE":"0"},{"REF_FRAME":"TEME","TLE_LINE1":"1 46082U 20055BH  22242.88180908 -.00001100  00000-0 -54997-4 0  9998","APOAPSIS":"548.316","EPOCH":"2022-08-30T21:09:48.304512","SEMIMAJOR_AXIS":"6925.374","EPHEMERIS_TYPE":"0","GP_ID":"211357713","MEAN_MOTION_DDOT":"0.0000000000000","CENTER_NAME":"EARTH","MEAN_ELEMENT_THEORY":"SGP4","RA_OF_ASC_NODE":"113.3319","ELEMENT_SET_NO":"999","DECAY_DATE":null,"FILE":"3552179","INCLINATION":"53.0545","BSTAR":"-0.00005499700000","NORAD_CAT_ID":"46082","PERIOD":"95.593","ARG_OF_PERICENTER":"85.3218","OBJECT_ID":"2020-055BH","OBJECT_NAME":"STARLINK-1578","CLASSIFICATION_TYPE":"U","TLE_LINE2":"2 46082  53.0545 113.3319 0001556  85.3218 274.7949 15.06391803115352","SITE":"AFETR","COUNTRY_CODE":"US","OBJECT_TYPE":"PAYLOAD","MEAN_ANOMALY":"274.7949","RCS_SIZE":"LARGE","MEAN_MOTION_DOT":"-0.00001100","LAUNCH_DATE":"2020-08-07","PERIAPSIS":"546.161","TIME_SYSTEM":"UTC","REV_AT_EPOCH":"11535","MEAN_MOTION":"15.06391803","ECCENTRICITY":"0.00015560"},{"APOAPSIS":"548.225","SEMIMAJOR_AXIS":"6925.387","EPOCH":"2022-08-30T20:27:20.189664","REF_FRAME":"TEME","TLE_LINE1":"1 46083U 20055BJ  22242.85231701  .00000212  00000-0  33123-4 0  9993","FILE":"3552179","DECAY_DATE":null,"ELEMENT_SET_NO":"999","NORAD_CAT_ID":"46083","BSTAR":"0.00003312300000","INCLINATION":"53.0561","CENTER_NAME":"EARTH","GP_ID":"211357964","MEAN_MOTION_DDOT":"0.0000000000000","EPHEMERIS_TYPE":"0","MEAN_ELEMENT_THEORY":"SGP4","RA_OF_ASC_NODE":"113.4603","OBJECT_TYPE":"PAYLOAD","COUNTRY_CODE":"US","LAUNCH_DATE":"2020-08-07","PERIAPSIS":"546.278","MEAN_MOTION_DOT":"0.00000212","RCS_SIZE":"LARGE","MEAN_ANOMALY":"274.7382","CLASSIFICATION_TYPE":"U","OBJECT_NAME":"STARLINK-1579","OBJECT_ID":"2020-055BJ","PERIOD":"95.593","ARG_OF_PERICENTER":"85.3768","SITE":"AFETR","TLE_LINE2":"2 46083  53.0561 113.4603 0001406  85.3768 274.7382 15.06387592115342","MEAN_MOTION":"15.06387592","ECCENTRICITY":"0.00014060","TIME_SYSTEM":"UTC","REV_AT_EPOCH":"11534"},{"MEAN_MOTION":"15.06395573","ECCENTRICITY":"0.00011700","TIME_SYSTEM":"UTC","REV_AT_EPOCH":"11234","COUNTRY_CODE":"US","OBJECT_TYPE":"PAYLOAD","MEAN_ANOMALY":"279.7992","RCS_SIZE":"LARGE","PERIAPSIS":"546.417","LAUNCH_DATE":"2020-08-18","MEAN_MOTION_DOT":"0.00000412","ARG_OF_PERICENTER":"80.3129","PERIOD":"95.592","OBJECT_ID":"2020-057A","OBJECT_NAME":"STARLINK-1585","CLASSIFICATION_TYPE":"U","TLE_LINE2":"2 46117  53.0566 314.7911 0001170  80.3129 279.7992 15.06395573112344","SITE":"AFETR","ELEMENT_SET_NO":"999","DECAY_DATE":null,"FILE":"3551880","INCLINATION":"53.0566","BSTAR":"0.00004656100000","NORAD_CAT_ID":"46117","EPHEMERIS_TYPE":"0","GP_ID":"211326263","MEAN_MOTION_DDOT":"0.0000000000000","CENTER_NAME":"EARTH","RA_OF_ASC_NODE":"314.7911","MEAN_ELEMENT_THEORY":"SGP4","APOAPSIS":"548.037","EPOCH":"2022-08-30T13:17:23.789184","SEMIMAJOR_AXIS":"6925.362","REF_FRAME":"TEME","TLE_LINE1":"1 46117U 20057A   22242.55374756  .00000412  00000-0  46561-4 0  9990"},{"ECCENTRICITY":"0.00012790","MEAN_MOTION":"15.06400053","REV_AT_EPOCH":"11336","TIME_SYSTEM":"UTC","MEAN_MOTION_DOT":"0.00001158","LAUNCH_DATE":"2020-08-18","PERIAPSIS":"546.328","RCS_SIZE":"LARGE","MEAN_ANOMALY":"272.7574","OBJECT_TYPE":"PAYLOAD","COUNTRY_CODE":"US","SITE":"AFETR","TLE_LINE2":"2 46118  53.0557 334.1486 0001279  87.3562 272.7574 15.06400053113368","CLASSIFICATION_TYPE":"U","OBJECT_ID":"2020-057B","OBJECT_NAME":"STARLINK-1588","ARG_OF_PERICENTER":"87.3562","PERIOD":"95.592","BSTAR":"0.00009664800000","NORAD_CAT_ID":"46118","INCLINATION":"53.0557","FILE":"3552179","DECAY_DATE":null,"ELEMENT_SET_NO":"999","MEAN_ELEMENT_THEORY":"SGP4","RA_OF_ASC_NODE":"334.1486","CENTER_NAME":"EARTH","GP_ID":"211358218","MEAN_MOTION_DDOT":"0.0000000000000","EPHEMERIS_TYPE":"0","SEMIMAJOR_AXIS":"6925.348","EPOCH":"2022-08-30T16:41:44.528064","APOAPSIS":"548.099","TLE_LINE1":"1 46118U 20057B   22242.69565426  .00001158  00000-0  96648-4 0  9991","REF_FRAME":"TEME"},{"APOAPSIS":"548.101","EPOCH":"2022-08-30T11:39:11.746368","SEMIMAJOR_AXIS":"6925.334","REF_FRAME":"TEME","TLE_LINE1":"1 46119U 20057C   22242.48555262 -.00000024  00000-0  17267-4 0  9998","ELEMENT_SET_NO":"999","DECAY_DATE":null,"FILE":"3551939","INCLINATION":"53.0551","BSTAR":"0.00001726700000","NORAD_CAT_ID":"46119","EPHEMERIS_TYPE":"0","MEAN_MOTION_DDOT":"0.0000000000000","GP_ID":"211332588","CENTER_NAME":"EARTH","MEAN_ELEMENT_THEORY":"SGP4","RA_OF_ASC_NODE":"335.0981","COUNTRY_CODE":"US","OBJECT_TYPE":"PAYLOAD","MEAN_ANOMALY":"277.8644","RCS_SIZE":"LARGE","MEAN_MOTION_DOT":"-0.00000024","LAUNCH_DATE":"2020-08-18","PERIAPSIS":"546.298","ARG_OF_PERICENTER":"82.2493","PERIOD":"95.592","OBJECT_NAME":"STARLINK-1593","OBJECT_ID":"2020-057C","CLASSIFICATION_TYPE":"U","TLE_LINE2":"2 46119  53.0551 335.0981 0001302  82.2493 277.8644 15.06404634112718","SITE":"AFETR","MEAN_MOTION":"15.06404634","ECCENTRICITY":"0.00013020","TIME_SYSTEM":"UTC","REV_AT_EPOCH":"11271"},{"RA_OF_ASC_NODE":"333.3935","MEAN_ELEMENT_THEORY":"SGP4","CENTER_NAME":"EARTH","EPHEMERIS_TYPE":"0","MEAN_MOTION_DDOT":"0.0000000000000","GP_ID":"211357717","BSTAR":"0.00002580500000","NORAD_CAT_ID":"46120","INCLINATION":"53.0567","ELEMENT_SET_NO":"999","DECAY_DATE":null,"FILE":"3552179","TLE_LINE1":"1 46120U 20057D   22242.86889131  .00000103  00000-0  25805-4 0  9991","REF_FRAME":"TEME","SEMIMAJOR_AXIS":"6925.334","EPOCH":"2022-08-30T20:51:12.209184","APOAPSIS":"548.026","REV_AT_EPOCH":"11339","TIME_SYSTEM":"UTC","ECCENTRICITY":"0.00011940","MEAN_MOTION":"15.06404823","SITE":"AFETR","TLE_LINE2":"2 46120  53.0567 333.3935 0001194  73.9654 286.1466 15.06404823113392","CLASSIFICATION_TYPE":"U","PERIOD":"95.592","ARG_OF_PERICENTER":"73.9654","OBJECT_ID":"2020-057D","OBJECT_NAME":"STARLINK-1601","RCS_SIZE":"LARGE","LAUNCH_DATE":"2020-08-18","MEAN_MOTION_DOT":"0.00000103","PERIAPSIS":"546.372","MEAN_ANOMALY":"286.1466","OBJECT_TYPE":"PAYLOAD","COUNTRY_CODE":"US"},{"MEAN_MOTION":"15.06387283","ECCENTRICITY":"0.00013610","TIME_SYSTEM":"UTC","REV_AT_EPOCH":"11235","OBJECT_TYPE":"PAYLOAD","COUNTRY_CODE":"US","RCS_SIZE":"LARGE","LAUNCH_DATE":"2020-08-18","MEAN_MOTION_DOT":"-0.00001187","PERIAPSIS":"546.310","MEAN_ANOMALY":"288.8048","CLASSIFICATION_TYPE":"U","PERIOD":"95.593","ARG_OF_PERICENTER":"71.3088","OBJECT_ID":"2020-057E","OBJECT_NAME":"STARLINK-1602","SITE":"AFETR","TLE_LINE2":"2 46121  53.0543 314.4304 0001361  71.3088 288.8048 15.06387283112356","ELEMENT_SET_NO":"999","DECAY_DATE":null,"FILE":"3552179","NORAD_CAT_ID":"46121","BSTAR":"-0.00006083500000","INCLINATION":"53.0543","CENTER_NAME":"EARTH","EPHEMERIS_TYPE":"0","GP_ID":"211357968","MEAN_MOTION_DDOT":"0.0000000000000","MEAN_ELEMENT_THEORY":"SGP4","RA_OF_ASC_NODE":"314.4304","APOAPSIS":"548.195","SEMIMAJOR_AXIS":"6925.388","EPOCH":"2022-08-30T15:19:29.194176","REF_FRAME":"TEME","TLE_LINE1":"1 46121U 20057E   22242.63853234 -.00001187  00000-0 -60835-4 0  9999"},{"TLE_LINE1":"1 46122U 20057F   22242.44870434  .00001219  00000-0  10071-3 0  9990","REF_FRAME":"TEME","SEMIMAJOR_AXIS":"6925.366","EPOCH":"2022-08-30T10:46:08.054976","APOAPSIS":"548.225","MEAN_ELEMENT_THEORY":"SGP4","RA_OF_ASC_NODE":"295.2572","CENTER_NAME":"EARTH","EPHEMERIS_TYPE":"0","GP_ID":"211326510","MEAN_MOTION_DDOT":"0.0000000000000","NORAD_CAT_ID":"46122","BSTAR":"0.00010071000000","INCLINATION":"53.0548","ELEMENT_SET_NO":"999","FILE":"3551880","DECAY_DATE":null,"SITE":"AFETR","TLE_LINE2":"2 46122  53.0548 295.2572 0001436  81.3322 278.7830 15.06394390113861","CLASSIFICATION_TYPE":"U","ARG_OF_PERICENTER":"81.3322","PERIOD":"95.592","OBJECT_NAME":"STARLINK-1604","OBJECT_ID":"2020-057F","RCS_SIZE":"LARGE","MEAN_MOTION_DOT":"0.00001219","LAUNCH_DATE":"2020-08-18","PERIAPSIS":"546.236","MEAN_ANOMALY":"278.7830","OBJECT_TYPE":"PAYLOAD","COUNTRY_CODE":"US","REV_AT_EPOCH":"11386","TIME_SYSTEM":"UTC","ECCENTRICITY":"0.00014360","MEAN_MOTION":"15.06394390"}];
